ERS-1                   
1 21574U 91050A   26070.01804141  .00000374  00000+0  13441-3 0  9997
2 21574  98.7880  88.2860 0031691 196.4716 163.5444 14.39450493815921
ARIANE 40 R/B           
1 21610U 91050F   26070.06583347  .00000343  00000+0  11510-3 0  9996
2 21610  98.2009 122.2505 0004269  78.2116 281.9554 14.42894673819193
INTERCOSMOS 25          
1 21819U 91086A   26070.14369672  .00001787  00000+0  34318-3 0  9992
2 21819  82.6047 309.1297 1486954 113.8002 262.5874 12.12003930496861
SL-8 R/B                
1 21876U 92008B   26070.05076185  .00000016  00000+0  50923-6 0  9991
2 21876  82.9222 266.7656 0035590 129.6547  30.7231 13.75969836709600
SL-8 R/B                
1 21938U 92020B   26070.21321112  .00000073  00000+0  59714-4 0  9993
2 21938  82.9334 152.6305 0027644 294.3741  94.4047 13.75549730701346
USA 81                  
1 21949U 92023A   26070.19567521  .00000183  00000+0  60435-4 0  9995
2 21949  85.0082 130.5724 0002420  76.7319 283.4143 14.32368513 95008
COSMOS 2219             
1 22219U 92076A   26070.14797517  .00000083  00000+0  68420-4 0  9990
2 22219  71.0637  15.0190 0018917 205.0527 154.9679 14.14092990718584
SL-16 R/B               
1 22220U 92076B   26069.62101094 -.00000172  00000+0 -62133-4 0  9998
2 22220  71.0008 186.4119 0010455  94.7272   0.2750 14.16859465721960
COSMOS 2221             
1 22236U 92080A   26070.04179946  .00002272  00000+0  19892-3 0  9993
2 22236  82.5012 277.7855 0014171 182.3730 177.7428 14.96206244780991
SL-16 R/B               
1 22285U 92093B   26070.15290249 -.00000185  00000+0 -70112-4 0  9999
2 22285  71.0242   1.1942 0006394 292.1680  67.8764 14.15447446713362
COSMOS 2228             
1 22286U 92094A   26070.12409831  .00003070  00000+0  26265-3 0  9990
2 22286  82.5158 235.9367 0016747 299.5757  60.3796 14.97198357776279
SL-16 R/B               
1 22566U 93016B   26069.84008505  .00000064  00000+0  57280-4 0  9998
2 22566  71.0075 212.7643 0011877 312.5676  47.4444 14.15309060702333
