CCSDS_OMM_VERS = 2.0
CREATION_DATE  = 
ORIGINATOR     = 

OBJECT_NAME    = ERS-1
OBJECT_ID      = 1991-050A
CENTER_NAME    = EARTH
REF_FRAME      = TEME
TIME_SYSTEM    = UTC
MEAN_ELEMENT_THEORY = SGP/SGP4

EPOCH          = 2026-03-11T00:25:58.777824
MEAN_MOTION    = 14.39450493
ECCENTRICITY   = .0031691
INCLINATION    = 98.7880
RA_OF_ASC_NODE = 88.2860
ARG_OF_PERICENTER = 196.4716
MEAN_ANOMALY   = 163.5444

EPHEMERIS_TYPE = 0
CLASSIFICATION_TYPE = U
NORAD_CAT_ID   = 21574
ELEMENT_SET_NO = 999
REV_AT_EPOCH   = 81592
BSTAR          = .13441E-3
MEAN_MOTION_DOT = .374E-5
MEAN_MOTION_DDOT = 0

CCSDS_OMM_VERS = 2.0
CREATION_DATE  = 
ORIGINATOR     = 

OBJECT_NAME    = ARIANE 40 R/B
OBJECT_ID      = 1991-050F
CENTER_NAME    = EARTH
REF_FRAME      = TEME
TIME_SYSTEM    = UTC
MEAN_ELEMENT_THEORY = SGP/SGP4

EPOCH          = 2026-03-11T01:34:48.011808
MEAN_MOTION    = 14.42894673
ECCENTRICITY   = .0004269
INCLINATION    = 98.2009
RA_OF_ASC_NODE = 122.2505
ARG_OF_PERICENTER = 78.2116
MEAN_ANOMALY   = 281.9554

EPHEMERIS_TYPE = 0
CLASSIFICATION_TYPE = U
NORAD_CAT_ID   = 21610
ELEMENT_SET_NO = 999
REV_AT_EPOCH   = 81919
BSTAR          = .1151E-3
MEAN_MOTION_DOT = .343E-5
MEAN_MOTION_DDOT = 0

CCSDS_OMM_VERS = 2.0
CREATION_DATE  = 
ORIGINATOR     = 

OBJECT_NAME    = INTERCOSMOS 25
OBJECT_ID      = 1991-086A
CENTER_NAME    = EARTH
REF_FRAME      = TEME
TIME_SYSTEM    = UTC
MEAN_ELEMENT_THEORY = SGP/SGP4

EPOCH          = 2026-03-11T03:26:55.396608
MEAN_MOTION    = 12.12003930
ECCENTRICITY   = .1486954
INCLINATION    = 82.6047
RA_OF_ASC_NODE = 309.1297
ARG_OF_PERICENTER = 113.8002
MEAN_ANOMALY   = 262.5874

EPHEMERIS_TYPE = 0
CLASSIFICATION_TYPE = U
NORAD_CAT_ID   = 21819
ELEMENT_SET_NO = 999
REV_AT_EPOCH   = 49686
BSTAR          = .34318E-3
MEAN_MOTION_DOT = .1787E-4
MEAN_MOTION_DDOT = 0

CCSDS_OMM_VERS = 2.0
CREATION_DATE  = 
ORIGINATOR     = 

OBJECT_NAME    = SL-8 R/B
OBJECT_ID      = 1992-008B
CENTER_NAME    = EARTH
REF_FRAME      = TEME
TIME_SYSTEM    = UTC
MEAN_ELEMENT_THEORY = SGP/SGP4

EPOCH          = 2026-03-11T01:13:05.823840
MEAN_MOTION    = 13.75969836
ECCENTRICITY   = .003559
INCLINATION    = 82.9222
RA_OF_ASC_NODE = 266.7656
ARG_OF_PERICENTER = 129.6547
MEAN_ANOMALY   = 30.7231

EPHEMERIS_TYPE = 0
CLASSIFICATION_TYPE = U
NORAD_CAT_ID   = 21876
ELEMENT_SET_NO = 999
REV_AT_EPOCH   = 70960
BSTAR          = .50923E-6
MEAN_MOTION_DOT = .16E-6
MEAN_MOTION_DDOT = 0

CCSDS_OMM_VERS = 2.0
CREATION_DATE  = 
ORIGINATOR     = 

OBJECT_NAME    = SL-8 R/B
OBJECT_ID      = 1992-020B
CENTER_NAME    = EARTH
REF_FRAME      = TEME
TIME_SYSTEM    = UTC
MEAN_ELEMENT_THEORY = SGP/SGP4

EPOCH          = 2026-03-11T05:07:01.440768
MEAN_MOTION    = 13.75549730
ECCENTRICITY   = .0027644
INCLINATION    = 82.9334
RA_OF_ASC_NODE = 152.6305
ARG_OF_PERICENTER = 294.3741
MEAN_ANOMALY   = 94.4047

EPHEMERIS_TYPE = 0
CLASSIFICATION_TYPE = U
NORAD_CAT_ID   = 21938
ELEMENT_SET_NO = 999
REV_AT_EPOCH   = 70134
BSTAR          = .59714E-4
MEAN_MOTION_DOT = .73E-6
MEAN_MOTION_DDOT = 0

CCSDS_OMM_VERS = 2.0
CREATION_DATE  = 
ORIGINATOR     = 

OBJECT_NAME    = USA 81
OBJECT_ID      = 1992-023A
CENTER_NAME    = EARTH
REF_FRAME      = TEME
TIME_SYSTEM    = UTC
MEAN_ELEMENT_THEORY = SGP/SGP4

EPOCH          = 2026-03-11T04:41:46.338144
MEAN_MOTION    = 14.32368513
ECCENTRICITY   = .000242
INCLINATION    = 85.0082
RA_OF_ASC_NODE = 130.5724
ARG_OF_PERICENTER = 76.7319
MEAN_ANOMALY   = 283.4143

EPHEMERIS_TYPE = 0
CLASSIFICATION_TYPE = U
NORAD_CAT_ID   = 21949
ELEMENT_SET_NO = 999
REV_AT_EPOCH   = 9500
BSTAR          = .60435E-4
MEAN_MOTION_DOT = .183E-5
MEAN_MOTION_DDOT = 0

CCSDS_OMM_VERS = 2.0
CREATION_DATE  = 
ORIGINATOR     = 

OBJECT_NAME    = COSMOS 2219
OBJECT_ID      = 1992-076A
CENTER_NAME    = EARTH
REF_FRAME      = TEME
TIME_SYSTEM    = UTC
MEAN_ELEMENT_THEORY = SGP/SGP4

EPOCH          = 2026-03-11T03:33:05.054688
MEAN_MOTION    = 14.14092990
ECCENTRICITY   = .0018917
INCLINATION    = 71.0637
RA_OF_ASC_NODE = 15.0190
ARG_OF_PERICENTER = 205.0527
MEAN_ANOMALY   = 154.9679

EPHEMERIS_TYPE = 0
CLASSIFICATION_TYPE = U
NORAD_CAT_ID   = 22219
ELEMENT_SET_NO = 999
REV_AT_EPOCH   = 71858
BSTAR          = .6842E-4
MEAN_MOTION_DOT = .83E-6
MEAN_MOTION_DDOT = 0

CCSDS_OMM_VERS = 2.0
CREATION_DATE  = 
ORIGINATOR     = 

OBJECT_NAME    = SL-16 R/B
OBJECT_ID      = 1992-076B
CENTER_NAME    = EARTH
REF_FRAME      = TEME
TIME_SYSTEM    = UTC
MEAN_ELEMENT_THEORY = SGP/SGP4

EPOCH          = 2026-03-10T14:54:15.345216
MEAN_MOTION    = 14.16859465
ECCENTRICITY   = .00104559
INCLINATION    = 71.0008
RA_OF_ASC_NODE = 186.4119
ARG_OF_PERICENTER = 94.7272
MEAN_ANOMALY   = 0.2750

EPHEMERIS_TYPE = 0
CLASSIFICATION_TYPE = U
NORAD_CAT_ID   = 22220
ELEMENT_SET_NO = 999
REV_AT_EPOCH   = 72196
BSTAR          = -.62132995E-4
MEAN_MOTION_DOT = -.172E-5
MEAN_MOTION_DDOT = 0

CCSDS_OMM_VERS = 2.0
CREATION_DATE  = 
ORIGINATOR     = 

OBJECT_NAME    = COSMOS 2221
OBJECT_ID      = 1992-080A
CENTER_NAME    = EARTH
REF_FRAME      = TEME
TIME_SYSTEM    = UTC
MEAN_ELEMENT_THEORY = SGP/SGP4

EPOCH          = 2026-03-11T01:00:11.473344
MEAN_MOTION    = 14.96206244
ECCENTRICITY   = .0014171
INCLINATION    = 82.5012
RA_OF_ASC_NODE = 277.7855
ARG_OF_PERICENTER = 182.3730
MEAN_ANOMALY   = 177.7428

EPHEMERIS_TYPE = 0
CLASSIFICATION_TYPE = U
NORAD_CAT_ID   = 22236
ELEMENT_SET_NO = 999
REV_AT_EPOCH   = 78099
BSTAR          = .19892E-3
MEAN_MOTION_DOT = .2272E-4
MEAN_MOTION_DDOT = 0

CCSDS_OMM_VERS = 2.0
CREATION_DATE  = 
ORIGINATOR     = 

OBJECT_NAME    = SL-16 R/B
OBJECT_ID      = 1992-093B
CENTER_NAME    = EARTH
REF_FRAME      = TEME
TIME_SYSTEM    = UTC
MEAN_ELEMENT_THEORY = SGP/SGP4

EPOCH          = 2026-03-11T03:40:10.775136
MEAN_MOTION    = 14.15447446
ECCENTRICITY   = .0006394
INCLINATION    = 71.0242
RA_OF_ASC_NODE = 1.1942
ARG_OF_PERICENTER = 292.1680
MEAN_ANOMALY   = 67.8764

EPHEMERIS_TYPE = 0
CLASSIFICATION_TYPE = U
NORAD_CAT_ID   = 22285
ELEMENT_SET_NO = 999
REV_AT_EPOCH   = 71336
BSTAR          = -.70112E-4
MEAN_MOTION_DOT = -.185E-5
MEAN_MOTION_DDOT = 0

CCSDS_OMM_VERS = 2.0
CREATION_DATE  = 
ORIGINATOR     = 

OBJECT_NAME    = COSMOS 2228
OBJECT_ID      = 1992-094A
CENTER_NAME    = EARTH
REF_FRAME      = TEME
TIME_SYSTEM    = UTC
MEAN_ELEMENT_THEORY = SGP/SGP4

EPOCH          = 2026-03-11T02:58:42.093984
MEAN_MOTION    = 14.97198357
ECCENTRICITY   = .0016747
INCLINATION    = 82.5158
RA_OF_ASC_NODE = 235.9367
ARG_OF_PERICENTER = 299.5757
MEAN_ANOMALY   = 60.3796

EPHEMERIS_TYPE = 0
CLASSIFICATION_TYPE = U
NORAD_CAT_ID   = 22286
ELEMENT_SET_NO = 999
REV_AT_EPOCH   = 77627
BSTAR          = .26265E-3
MEAN_MOTION_DOT = .307E-4
MEAN_MOTION_DDOT = 0

CCSDS_OMM_VERS = 2.0
CREATION_DATE  = 
ORIGINATOR     = 

OBJECT_NAME    = SL-16 R/B
OBJECT_ID      = 1993-016B
CENTER_NAME    = EARTH
REF_FRAME      = TEME
TIME_SYSTEM    = UTC
MEAN_ELEMENT_THEORY = SGP/SGP4

EPOCH          = 2026-03-10T20:09:43.348320
MEAN_MOTION    = 14.15309060
ECCENTRICITY   = .00118774
INCLINATION    = 71.0075
RA_OF_ASC_NODE = 212.7643
ARG_OF_PERICENTER = 312.5676
MEAN_ANOMALY   = 47.4444

EPHEMERIS_TYPE = 0
CLASSIFICATION_TYPE = U
NORAD_CAT_ID   = 22566
ELEMENT_SET_NO = 999
REV_AT_EPOCH   = 70233
BSTAR          = .57279863E-4
MEAN_MOTION_DOT = .64E-6
MEAN_MOTION_DDOT = 0

